NORAD_CAT_ID,OBJECT_NAME,OBJECT_TYPE,EPOCH,MEAN_MOTION,ECCENTRICITY,INCLINATION,RA_OF_ASC_NODE,ARG_OF_PERICENTER,MEAN_ANOMALY,BSTAR,MEAN_MOTION_DOT,MEAN_MOTION_DDOT,TLE_LINE0,TLE_LINE1,TLE_LINE2,SEMIMAJOR_AXIS,PERIOD,APOGEE,PERIGEE,DECAYED
54199.0,STARLINK-5244,PAYLOAD,2024-07-20 04:03:19,15.08841734,0.0001329,53.2175,156.4228,97.529,262.5853,7.4361e-06,-1.7e-06,0.0,0 STARLINK-5244,1 54199U 22141AU  24202.16897115 -.00000170  00000-0  74361-5 0  9991,2 54199  53.2175 156.4228 0001329  97.5290 262.5853 15.08841734 96027,6917.875,95.437,540.659,538.821,0.0
54199.0,STARLINK-5244,PAYLOAD,2024-07-20 13:35:38,15.08836513,0.0001255,53.2169,154.6375,93.472,266.6416,-1.4239e-05,-5.14e-06,0.0,0 STARLINK-5244,1 54199U 22141AU  24202.56641513 -.00000514  00000-0 -14239-4 0  9994,2 54199  53.2169 154.6375 0001255  93.4720 266.6416 15.08836513 95853,6917.891,95.438,540.624,538.888,0.0
54199.0,STARLINK-5244,PAYLOAD,2024-07-21 03:54:08,15.08812869,0.0001573,53.2178,151.9644,116.2803,243.8351,-0.0001423,-2.55e-05,0.0,0 STARLINK-5244,1 54199U 22141AU  24203.16260274 -.00002550  00000-0 -14230-3 0  9994,2 54199  53.2178 151.9644 0001573 116.2803 243.8351 15.08812869 96170,6917.963,95.439,540.917,538.74,0.0
54199.0,STARLINK-5244,PAYLOAD,2024-07-21 05:29:31,15.08817833,0.00015,53.2184,151.6644,110.4727,249.6426,-0.00012405,-2.26e-05,0.0,0 STARLINK-5244,1 54199U 22141AU  24203.22883961 -.00002260  00000-0 -12405-3 0  9995,2 54199  53.2184 151.6644 0001500 110.4727 249.6426 15.08817833 95953,6917.948,95.439,540.851,538.775,0.0
54199.0,STARLINK-5244,PAYLOAD,2024-07-22 03:44:52,15.08859371,0.0001248,53.2162,147.5003,118.3396,241.7722,0.00024732,3.652e-05,0.0,0 STARLINK-5244,1 54199U 22141AU  24204.15616617  .00003652  00000-0  24732-3 0  9990,2 54199  53.2162 147.5003 0001248 118.3396 241.7722 15.08859371 96327,6917.821,95.436,540.55,538.823,0.0
54199.0,STARLINK-5244,PAYLOAD,2024-07-22 05:20:15,15.08860354,0.0001283,53.2166,147.2035,114.2688,245.8438,0.00025465,3.769e-05,0.0,0 STARLINK-5244,1 54199U 22141AU  24204.22240492  .00003769  00000-0  25465-3 0  9995,2 54199  53.2166 147.2035 0001283 114.2688 245.8438 15.08860354 96109,6917.818,95.436,540.571,538.796,0.0
54199.0,STARLINK-5244,PAYLOAD,2024-07-23 03:35:40,15.08848628,0.0001158,53.2167,143.0377,104.0821,256.03,0.00028296,4.219e-05,0.0,0 STARLINK-5244,1 54199U 22141AU  24205.14977200  .00004219  00000-0  28296-3 0  9997,2 54199  53.2167 143.0377 0001158 104.0821 256.0300 15.08848628 96472,6917.854,95.437,540.52,538.918,0.0
54199.0,STARLINK-5244,PAYLOAD,2024-07-23 13:08:00,15.0883121,0.0001488,53.2162,141.2541,87.264,272.8522,6.9151e-05,8.12e-06,0.0,0 STARLINK-5244,1 54199U 22141AU  24205.54722964  .00000812  00000-0  69151-4 0  9997,2 54199  53.2162 141.2541 0001488  87.2640 272.8522 15.08831210 96535,6917.907,95.438,540.802,538.743,0.0
54199.0,STARLINK-5244,PAYLOAD,2024-07-24 01:51:05,15.0884338,0.0001264,53.2175,138.871,111.8041,248.3086,-0.00020335,-3.523e-05,0.0,0 STARLINK-5244,1 54199U 22141AU  24206.07714721 -.00003523  00000-0 -20335-3 0  9992,2 54199  53.2175 138.8710 0001264 111.8041 248.3086 15.08843380 96613,6917.87,95.437,540.609,538.861,0.0
54199.0,STARLINK-5244,PAYLOAD,2024-07-24 19:20:19,15.0884863,0.0001203,53.2177,135.5973,105.489,254.6235,-7.6066e-05,-1.499e-05,0.0,0 STARLINK-5244,1 54199U 22141AU  24206.80577970 -.00001499  00000-0 -76066-4 0  9999,2 54199  53.2177 135.5973 0001203 105.4890 254.6235 15.08848630 96725,6917.854,95.437,540.551,538.887,0.0
54199.0,STARLINK-5244,PAYLOAD,2024-07-25 04:52:36,15.08863183,0.0001292,53.218,133.819,90.7017,269.4123,5.8179e-05,6.39e-06,0.0,0 STARLINK-5244,1 54199U 22141AU  24207.20320456  .00000639  00000-0  58179-4 0  9997,2 54199  53.2180 133.8190 0001292  90.7017 269.4123 15.08863183 96782,6917.81,95.436,540.568,538.781,0.0
54199.0,STARLINK-5244,PAYLOAD,2024-07-25 22:21:52,15.08833552,0.0001384,53.2171,130.5391,121.0805,239.0323,0.00013783,1.906e-05,0.0,0 STARLINK-5244,1 54199U 22141AU  24207.93185931  .00001906  00000-0  13783-3 0  9993,2 54199  53.2171 130.5391 0001384 121.0805 239.0323 15.08833552 96663,6917.9,95.438,540.723,538.808,0.0
54199.0,STARLINK-5244,PAYLOAD,2024-07-26 01:32:39,15.08839021,0.000121,53.218,129.9601,91.0731,269.0399,7.1298e-05,8.47e-06,0.0,0 STARLINK-5244,1 54199U 22141AU  24208.06434130  .00000847  00000-0  71298-4 0  9995,2 54199  53.2180 129.9601 0001210  91.0731 269.0399 15.08839021 96912,6917.883,95.438,540.585,538.911,0.0
54199.0,STARLINK-5244,PAYLOAD,2024-07-26 19:01:52,15.08852086,0.0001147,53.2184,126.6843,90.7254,269.387,2.5526e-05,1.19e-06,0.0,0 STARLINK-5244,1 54199U 22141AU  24208.79297314  .00000119  00000-0  25526-4 0  9991,2 54199  53.2184 126.6843 0001147  90.7254 269.3870 15.08852086 97029,6917.843,95.437,540.502,538.915,0.0
54199.0,STARLINK-5244,PAYLOAD,2024-07-27 22:03:27,15.08826227,0.0001616,53.2182,121.6283,101.2647,258.8527,-1.7917e-05,-5.73e-06,0.0,0 STARLINK-5244,1 54199U 22141AU  24209.91906953 -.00000573  00000-0 -17917-4 0  9993,2 54199  53.2182 121.6283 0001616 101.2647 258.8527 15.08826227 96967,6917.922,95.438,540.905,538.67,0.0
54199.0,STARLINK-5244,PAYLOAD,2024-07-28 01:14:13,15.08825908,0.0001181,53.2162,121.0327,90.7494,269.3633,-1.1332e-05,-4.68e-06,0.0,0 STARLINK-5244,1 54199U 22141AU  24210.05155018 -.00000468  00000-0 -11332-4 0  9996,2 54199  53.2162 121.0327 0001181  90.7494 269.3633 15.08825908 97216,6917.923,95.438,540.605,538.971,0.0
54199.0,STARLINK-5244,PAYLOAD,2024-07-28 10:46:32,15.08832685,0.000134,53.2175,119.2496,88.1779,271.9367,-3.2487e-05,-8.05e-06,0.0,0 STARLINK-5244,1 54199U 22141AU  24210.44898881 -.00000805  00000-0 -32487-4 0  9990,2 54199  53.2175 119.2496 0001340  88.1779 271.9367 15.08832685 97279,6917.903,95.438,540.695,538.841,0.0
54199.0,STARLINK-5244,PAYLOAD,2024-07-28 21:54:16,15.08752101,0.0002308,53.2173,117.1683,89.5608,270.5648,0.00111,0.0001738,0.0,0 STARLINK-5244,1 54199U 22141AU  24210.91268716  .00017380  00000-0  11100-2 0  9991,2 54199  53.2173 117.1683 0002308  89.5608 270.5648 15.08752101 97117,6918.149,95.443,541.611,538.417,0.0
54199.0,STARLINK-5244,PAYLOAD,2024-07-29 01:04:58,15.08906704,0.000114,53.2173,116.5749,89.1402,270.972,-0.00092742,-0.00015044,0.0,0 STARLINK-5244,1 54199U 22141AU  24211.04512611 -.00015044  00000-0 -92742-3 0  9991,2 54199  53.2173 116.5749 0001140  89.1402 270.9720 15.08906704 97366,6917.677,95.433,540.33,538.753,0.0
54199.0,STARLINK-5244,PAYLOAD,2024-07-29 10:37:19,15.08866741,0.000105,53.2178,114.7914,88.3224,271.7888,-0.00020082,-3.485e-05,0.0,0 STARLINK-5244,1 54199U 22141AU  24211.44258287 -.00003485  00000-0 -20082-3 0  9995,2 54199  53.2178 114.7914 0001050  88.3224 271.7888 15.08866741 97425,6917.799,95.436,540.39,538.937,0.0
54199.0,STARLINK-5244,PAYLOAD,2024-07-29 21:45:01,15.08815449,0.0001601,53.2182,112.7103,102.4924,257.6247,0.00048049,7.362e-05,0.0,0 STARLINK-5244,1 54199U 22141AU  24211.90627209  .00007362  00000-0  48049-3 0  9999,2 54199  53.2182 112.7103 0001601 102.4924 257.6247 15.08815449 97268,6917.955,95.439,540.928,538.713,0.0
54199.0,STARLINK-5244,PAYLOAD,2024-07-30 00:55:47,15.08839515,0.0001546,53.2178,112.1149,88.1054,272.0115,0.000252,3.725e-05,0.0,0 STARLINK-5244,1 54199U 22141AU  24212.03874439  .00003725  00000-0  25200-3 0  9996,2 54199  53.2178 112.1149 0001546  88.1054 272.0115 15.08839515 97512,6917.882,95.438,540.816,538.677,0.0
54199.0,STARLINK-5244,PAYLOAD,2024-07-30 10:28:06,15.0884278,0.0001617,53.2177,110.3297,85.1949,274.9228,0.00018704,2.69e-05,0.0,0 STARLINK-5244,1 54199U 22141AU  24212.43618443  .00002690  00000-0  18704-3 0  9992,2 54199  53.2177 110.3297 0001617  85.1949 274.9228 15.08842780 97349,6917.872,95.437,540.856,538.618,0.0
54199.0,STARLINK-5244,PAYLOAD,2024-07-30 23:11:11,15.08847992,0.0001448,53.2172,107.9505,82.1187,277.997,7.2194e-05,8.61e-06,0.0,0 STARLINK-5244,1 54199U 22141AU  24212.96610331  .00000861  00000-0  72194-4 0  9990,2 54199  53.2172 107.9505 0001448  82.1187 277.9970 15.08847992 97427,6917.856,95.437,540.723,538.719,0.0
54199.0,STARLINK-5244,PAYLOAD,2024-07-31 10:18:53,15.08846459,0.0001415,53.218,105.8715,83.8884,276.2269,5.2486e-05,5.48e-06,0.0,0 STARLINK-5244,1 54199U 22141AU  24213.42978252  .00000548  00000-0  52486-4 0  9995,2 54199  53.2180 105.8715 0001415  83.8884 276.2269 15.08846459 97725,6917.861,95.437,540.705,538.747,0.0
54199.0,STARLINK-5244,PAYLOAD,2024-07-31 21:26:35,15.08837565,0.0001695,53.2174,103.7886,90.2975,269.8211,8.9666e-06,-1.45e-06,0.0,0 STARLINK-5244,1 54199U 22141AU  24213.89347039 -.00000145  00000-0  89666-5 0  9994,2 54199  53.2174 103.7886 0001695  90.2975 269.8211 15.08837565 97797,6917.888,95.438,540.925,538.58,0.0
54199.0,STARLINK-5244,PAYLOAD,2024-07-31 23:01:58,15.08838962,0.0001435,53.2172,103.4907,90.9526,269.1631,-3.7229e-05,-8.8e-06,0.0,0 STARLINK-5244,1 54199U 22141AU  24213.95971008 -.00000880  00000-0 -37229-4 0  9994,2 54199  53.2172 103.4907 0001435  90.9526 269.1631 15.08838962 97574,6917.884,95.438,540.741,538.756,0.0
54199.0,STARLINK-5244,PAYLOAD,2024-08-01 10:09:40,15.08844215,0.0001476,53.2178,101.409,90.0925,270.0236,2.49e-05,1.08e-06,0.0,0 STARLINK-5244,1 54199U 22141AU  24214.42338456  .00000108  00000-0  24900-4 0  9994,2 54199  53.2178 101.4090 0001476  90.0925 270.0236 15.08844215 97648,6917.868,95.437,540.754,538.711,0.0
54199.0,STARLINK-5244,PAYLOAD,2024-08-01 21:17:21,15.08852836,0.0001231,53.2169,99.3271,93.5745,266.5388,0.00013986,1.939e-05,0.0,0 STARLINK-5244,1 54199U 22141AU  24214.88705394  .00001939  00000-0  13986-3 0  9997,2 54199  53.2169  99.3271 0001231  93.5745 266.5388 15.08852836 97940,6917.841,95.437,540.558,538.855,0.0
54199.0,STARLINK-5244,PAYLOAD,2024-08-01 22:52:44,15.08854588,0.0001228,53.2172,99.0292,94.7688,265.3444,0.0001598,2.257e-05,0.0,0 STARLINK-5244,1 54199U 22141AU  24214.95329256  .00002257  00000-0  15980-3 0  9994,2 54199  53.2172  99.0292 0001228  94.7688 265.3444 15.08854588 97721,6917.836,95.437,540.55,538.851,0.0
